[{"OBJECT_NAME":"LEO 1 (LEO VANTAGE 1)","OBJECT_ID":"2018-004C","EPOCH":"2026-03-09T16:57:06.140448","MEAN_MOTION":14.67184901,"ECCENTRICITY":0.03529424,"INCLINATION":99.2469,"RA_OF_ASC_NODE":334.0284,"ARG_OF_PERICENTER":24.854,"MEAN_ANOMALY":336.9207,"EPHEMERIS_TYPE":0,"CLASSIFICATION_TYPE":"U","NORAD_CAT_ID":43113,"ELEMENT_SET_NO":999,"REV_AT_EPOCH":42289,"BSTAR":0.000396029,"MEAN_MOTION_DOT":5.709e-5,"MEAN_MOTION_DDOT":0},{"OBJECT_NAME":"NOAA 16 DEB","OBJECT_ID":"2000-055CD","EPOCH":"2026-03-09T13:11:30.516864","MEAN_MOTION":14.53840026,"ECCENTRICITY":0.00145527,"INCLINATION":98.8235,"RA_OF_ASC_NODE":190.8071,"ARG_OF_PERICENTER":49.7576,"MEAN_ANOMALY":310.4889,"EPHEMERIS_TYPE":0,"CLASSIFICATION_TYPE":"U","NORAD_CAT_ID":41146,"ELEMENT_SET_NO":999,"REV_AT_EPOCH":53199,"BSTAR":0.0042108542,"MEAN_MOTION_DOT":0.00017708,"MEAN_MOTION_DDOT":0}]
